O3B MPOWER F1           
1 54755U 22174A   24278.81623266 -.00000019  00000+0  00000+0 0  9998
2 54755   0.0525 345.7335 0006473 199.4314  56.4764  5.00113589 34327
